OBJECT_NAME,OBJECT_ID,EPOCH,MEAN_MOTION,ECCENTRICITY,INCLINATION,RA_OF_ASC_NODE,ARG_OF_PERICENTER,MEAN_ANOMALY,EPHEMERIS_TYPE,CLASSIFICATION_TYPE,NORAD_CAT_ID,ELEMENT_SET_NO,REV_AT_EPOCH,BSTAR,MEAN_MOTION_DOT,MEAN_MOTION_DDOT
BEIDOU-2 IGSO-5 (C10),2011-073A,2026-07-02T17:30:18.330912,1.00270596,.01145273,47.6496,271.3544,222.0502,141.5350,0,U,37948,999,5329,0,-.128E-5,0
LUCH 5A (SDCM/PRN 140),2011-074B,2026-07-12T11:19:08.743008,1.00272699,.00025655,8.8154,73.4350,59.7229,133.9650,0,U,37951,999,5330,0,-.57E-6,0
BEIDOU-2 G5 (C05),2012-008A,2026-07-12T15:30:02.968416,1.00269501,.00073504,3.6336,69.5335,269.5265,242.6631,0,U,38091,999,5262,0,.54E-6,0
BEIDOU-2 M3 (C11),2012-018A,2026-07-11T21:19:49.397952,1.86229849,.00209982,55.7352,304.0434,272.3381,87.4376,0,U,38250,999,9640,0,-.7E-6,0
BEIDOU-2 M4 (C12),2012-018B,2026-07-10T05:02:43.446048,1.86229687,.0012086,55.6367,303.3120,272.7348,87.1429,0,U,38251,999,9637,0,-.69E-6,0
SES-5 (EGNOS/PRN 136),2012-036A,2026-07-12T09:10:38.808768,1.00270430,.00018809,0.0464,319.3864,153.8533,319.6709,0,U,38652,999,4471,0,.35E-6,0
BEIDOU-2 M6 (C14),2012-050B,2026-07-12T01:37:29.173728,1.86230837,.0012991,56.5659,62.0719,1.2646,358.8073,0,U,38775,999,9377,0,-.42E-6,0
GSAT-10 (GAGAN/PRN 128),2012-051B,2026-07-12T10:29:04.493184,1.00271483,.00073901,0.0995,265.3816,187.6646,77.5246,0,U,38779,999,5035,0,-.163E-5,0
GPS BIIF-3  (PRN 24),2012-053A,2026-07-12T05:52:03.042624,2.00567833,.0181817,53.5892,142.5728,66.1687,295.6844,0,U,38833,999,9994,0,.9E-7,0
GSAT0103 (GALILEO-FM3),2012-055A,2026-07-09T18:23:01.882464,1.70473301,.00039458,55.8193,100.9259,309.3641,50.6099,0,U,38857,999,8539,0,-.19E-6,0
BEIDOU-2 G6 (C02),2012-059A,2026-07-12T01:56:01.093344,1.00274040,.00091714,4.4807,73.2545,326.5797,3.1056,0,U,38953,999,5015,0,-.177E-5,0
LUCH 5B (SDCM/PRN 125),2012-061A,2026-07-12T10:00:37.221408,1.00270705,.00038351,10.5347,49.6244,145.5036,229.0762,0,U,38977,999,4986,0,-.144E-5,0
COSMOS 2485 (747),2013-019A,2026-07-09T21:41:21.416640,2.13103398,.0022762,65.4318,72.8427,231.6212,128.2346,0,U,39155,999,10276,0,-.24E-6,0
GPS BIIF-4  (PRN 27),2013-023A,2026-07-11T02:45:34.430976,2.00563301,.01413886,54.4858,267.9980,51.1088,310.2120,0,U,39166,999,9636,0,.7E-7,0
IRNSS-1A,2013-034A,2026-07-10T17:17:25.712736,1.00281941,.0017567,35.7704,63.5328,183.4462,356.2994,0,U,39199,999,4760,0,.47E-6,0
GPS BIIF-5  (PRN 30),2014-008A,2026-07-12T02:44:05.391456,2.00561330,.00841291,53.6574,148.3030,231.5326,127.6731,0,U,39533,999,9018,0,.2E-6,0
ASTRA 5B (EGNOS/PRN 123),2014-011B,2026-07-12T11:54:31.690368,1.00272831,.00019804,0.0830,298.9991,190.4518,3.0735,0,U,39617,999,4492,0,.138E-5,0
COSMOS 2492 (754),2014-012A,2026-07-10T19:13:34.366080,2.13103316,.00102934,65.2825,313.1340,318.9623,40.9656,0,U,39620,999,9574,0,-.61E-6,0
IRNSS-1B,2014-017A,2026-07-10T17:17:10.737024,1.00274378,.00223275,28.8825,239.9967,191.5584,171.4704,0,U,39635,999,4503,0,.149E-5,0
LUCH 5V (SDCM/PRN 141),2014-023A,2026-07-12T15:40:22.685376,1.00274694,.00020409,5.1919,69.4732,80.1699,110.6896,0,U,39727,999,4461,0,-.274E-5,0
GPS BIIF-6  (PRN 06),2014-026A,2026-07-11T21:23:31.813152,2.00559063,.0038128,56.4851,330.5562,325.8600,33.8911,0,U,39741,999,8903,0,-.86E-6,0
COSMOS 2500 (755),2014-032A,2026-07-11T21:49:02.193024,2.13105969,.0008133,65.2172,312.8417,189.5491,170.4407,0,U,40001,999,9398,0,-.63E-6,0
GPS BIIF-7  (PRN 09),2014-045A,2026-07-11T11:37:40.026720,2.00559992,.00342538,55.3686,87.4969,118.3351,242.0458,0,U,40105,999,8656,0,-.38E-6,0
GSAT0201 (GALILEO 5),2014-050A,2026-07-10T01:18:12.802176,1.85519753,.16778151,48.8500,272.4979,180.2883,179.6634,0,U,40128,999,7874,0,-.22E-6,0
GSAT0202 (GALILEO 6),2014-050B,2026-07-11T09:18:20.936448,1.85520566,.16791779,48.8660,271.5287,181.0429,178.6225,0,U,40129,999,8093,0,-.14E-6,0
IRNSS-1C,2014-061A,2026-07-11T21:22:29.055648,1.00272869,.00221348,6.5787,88.4618,5.0900,239.8922,0,U,40269,999,4293,0,-.165E-5,0
GPS BIIF-8  (PRN 03),2014-068A,2026-07-11T20:25:46.278048,2.00552830,.00673643,57.0043,30.0052,72.1584,288.6313,0,U,40294,999,8570,0,-.51E-6,0
COSMOS 2501 (702K),2014-075A,2026-07-12T04:06:50.105664,2.13101266,.00226861,63.6181,189.5071,212.6526,147.2271,0,U,40315,999,9038,0,.94E-6,0
GPS BIIF-9  (PRN 26),2015-013A,2026-07-12T11:47:34.878624,2.00549807,.01102526,53.1663,203.1310,40.3552,320.4981,0,U,40534,999,8233,0,.87E-6,0
GSAT0203 (GALILEO 7),2015-017A,2026-07-10T02:08:55.601088,1.70476121,.00025033,56.7788,340.9723,258.1316,101.8369,0,U,40544,999,6959,0,-.8E-6,0
GSAT0204 (GALILEO 8),2015-017B,2026-07-10T08:17:21.294240,1.70475622,.00026381,56.7851,340.9839,235.0424,124.9287,0,U,40545,999,3264,0,-.81E-6,0
