BEIDOU-2 IGSO-5         
1 37948U 11073A   26183.72937883 -.00000128  00000+0  00000+0 0  9990
2 37948  47.6496 271.3544 0114527 222.0502 141.5350  1.00270596 53296
LUCH-5A                 
1 37951U 11074B   26193.47162897 -.00000057  00000+0  00000+0 0  9994
2 37951   8.8154  73.4350 0002565  59.7229 133.9650  1.00272699 53301
BEIDOU-2 G5             
1 38091U 12008A   26193.64586769  .00000054  00000+0  00000+0 0  9991
2 38091   3.6336  69.5335 0007350 269.5265 242.6631  1.00269501 52628
BEIDOU-2 M3             
1 38250U 12018A   26192.88876618 -.00000070  00000+0  00000+0 0  9998
2 38250  55.7352 304.0434 0020998 272.3381  87.4376  1.86229849 96402
BEIDOU-2 M4             
1 38251U 12018B   26191.21022507 -.00000069  00000+0  00000+0 0  9993
2 38251  55.6367 303.3120 0012086 272.7348  87.1429  1.86229687 96370
SES-5                   
1 38652U 12036A   26193.38239362  .00000035  00000+0  00000+0 0  9999
2 38652   0.0464 319.3864 0001880 153.8533 319.6709  1.00270430 44717
BEIDOU-2 M6             
1 38775U 12050B   26193.06769877 -.00000042  00000+0  00000+0 0  9994
2 38775  56.5659  62.0719 0012991   1.2646 358.8073  1.86230837 93772
GSAT-10                 
1 38779U 12051B   26193.43685756 -.00000163  00000+0  00000+0 0  9997
2 38779   0.0995 265.3816 0007390 187.6646  77.5246  1.00271483 50357
NAVSTAR 67 (USA 239)    
1 38833U 12053A   26193.24447966  .00000009  00000+0  00000+0 0  9996
2 38833  53.5892 142.5728 0181817  66.1687 295.6844  2.00567833 99941
GSAT0103 (GALILEO-FM3)  
1 38857U 12055A   26190.76599401 -.00000019  00000+0  00000+0 0  9992
2 38857  55.8193 100.9259 0003945 309.3641  50.6099  1.70473301 85397
BEIDOU-2 G6             
1 38953U 12059A   26193.08056821 -.00000177  00000+0  00000+0 0  9990
2 38953   4.4807  73.2545 0009171 326.5797   3.1056  1.00274040 50150
LUCH-5B                 
1 38977U 12061A   26193.41709747 -.00000144  00000+0  00000+0 0  9992
2 38977  10.5347  49.6244 0003835 145.5036 229.0762  1.00270705 49865
COSMOS 2485 [GLONASS-M] 
1 39155U 13019A   26190.90372010 -.00000024  00000+0  00000+0 0  9992
2 39155  65.4318  72.8427 0022762 231.6212 128.2346  2.13103398102760
NAVSTAR 68 (USA 242)    
1 39166U 13023A   26192.11498184  .00000007  00000+0  00000+0 0  9995
2 39166  54.4858 267.9980 0141388  51.1088 310.2120  2.00563301 96363
IRNSS-1A                
1 39199U 13034A   26191.72043649  .00000047  00000+0  00000+0 0  9995
2 39199  35.7704  63.5328 0017567 183.4462 356.2994  1.00281941 47601
NAVSTAR 69 (USA 248)    
1 39533U 14008A   26193.11395129  .00000020  00000+0  00000+0 0  9998
2 39533  53.6574 148.3030 0084129 231.5326 127.6731  2.00561330 90185
ASTRA 5B                
1 39617U 14011B   26193.49620012  .00000138  00000+0  00000+0 0  9998
2 39617   0.0830 298.9991 0001980 190.4518   3.0735  1.00272831 44923
COSMOS 2492 [GLONASS-M] 
1 39620U 14012A   26191.80109220 -.00000061  00000+0  00000+0 0  9995
2 39620  65.2825 313.1340 0010293 318.9623  40.9656  2.13103316 95747
IRNSS-1B                
1 39635U 14017A   26191.72026316  .00000149  00000+0  00000+0 0  9997
2 39635  28.8825 239.9967 0022327 191.5584 171.4704  1.00274378 45033
LUCH-5V                 
1 39727U 14023A   26193.65304034 -.00000274  00000+0  00000+0 0  9996
2 39727   5.1919  69.4732 0002040  80.1699 110.6896  1.00274694 44614
NAVSTAR 70 (USA 251)    
1 39741U 14026A   26192.89134043 -.00000086  00000+0  00000+0 0  9992
2 39741  56.4851 330.5562 0038128 325.8600  33.8911  2.00559063 89030
COSMOS 2500 [GLONASS-M] 
1 40001U 14032A   26192.90905316 -.00000063  00000+0  00000+0 0  9996
2 40001  65.2172 312.8417 0008133 189.5491 170.4407  2.13105969 93986
NAVSTAR 71 (USA 256)    
1 40105U 14045A   26192.48449105 -.00000038  00000+0  00000+0 0  9999
2 40105  55.3686  87.4969 0034253 118.3351 242.0458  2.00559992 86568
GSAT0201 (GALILEO 5)    
1 40128U 14050A   26191.05431484 -.00000022  00000+0  00000+0 0  9996
2 40128  48.8500 272.4979 1677815 180.2883 179.6634  1.85519753 78743
GSAT0202 (GALILEO 6)    
1 40129U 14050B   26192.38774232 -.00000014  00000+0  00000+0 0  9996
2 40129  48.8660 271.5287 1679177 181.0429 178.6225  1.85520566 80934
IRNSS-1C                
1 40269U 14061A   26192.89061407 -.00000165  00000+0  00000+0 0  9999
2 40269   6.5787  88.4618 0022134   5.0900 239.8922  1.00272869 42935
NAVSTAR 72 (USA 258)    
1 40294U 14068A   26192.85123007 -.00000051  00000+0  00000+0 0  9999
2 40294  57.0043  30.0052 0067364  72.1584 288.6313  2.00552830 85709
COSMOS 2501 [GLONASS-K] 
1 40315U 14075A   26193.17141326  .00000094  00000+0  00000+0 0  9997
2 40315  63.6181 189.5071 0022686 212.6526 147.2271  2.13101266 90385
NAVSTAR 73 (USA 260)    
1 40534U 15013A   26193.49137591  .00000087  00000+0  00000+0 0  9999
2 40534  53.1663 203.1310 0110252  40.3552 320.4981  2.00549807 82330
GSAT0203 (GALILEO 7)    
1 40544U 15017A   26191.08953242 -.00000080  00000+0  00000+0 0  9990
2 40544  56.7788 340.9723 0002503 258.1316 101.8369  1.70476121 69590
GSAT0204 (GALILEO 8)    
1 40545U 15017B   26191.34538535 -.00000081  00000+0  00000+0 0  9995
2 40545  56.7851 340.9839 0002638 235.0424 124.9287  1.70475622 32649
